0 FENGYUN 1C DEB
1 33736U 99025DHZ 13283.22895613  .00003294  00000-0  13128-2 0  4170
2 33736 099.6876 193.9162 0051544 293.7700 065.8680 14.28654286281108
0 FENGYUN 1C DEB
1 33736U 99025DHZ 13284.20942329  .00003355  00000-0  13385-2 0  4180
2 33736 099.6899 195.0017 0048752 286.4017 073.2241 14.28662372281248
0 FENGYUN 1C DEB
1 33736U 99025DHZ 13289.53193590  .00003834  00000-0  15210-2 0  4191
2 33736 099.6882 200.9081 0053694 275.3210 084.5962 14.28714264282008
0 FENGYUN 1C DEB
1 33736U 99025DHZ 13290.23216991  .00003880  00000-0  15396-2 0  4209
2 33736 099.6904 201.6877 0052590 272.0512 087.4871 14.28721006282101
0 FENGYUN 1C DEB
1 33736U 99025DHZ 13291.21260024  .00003949  00000-0  15671-2 0  4217
2 33736 099.6904 202.7747 0051376 267.4083 092.1697 14.28730980282246
0 FENGYUN 1C DEB
1 33736U 99025DHZ 13293.73367992  .00004204  00000-0  16646-2 0  4227
2 33736 099.6875 205.5672 0053213 258.5916 101.0820 14.28757921282601
0 FENGYUN 1C DEB
1 33736U 99025DHZ 13294.22385599  .00004242  00000-0  16797-2 0  4235
2 33736 099.6909 206.1157 0052428 255.5066 104.0476 14.28763111282679
0 FENGYUN 1C DEB
1 33736U 99025DHZ 13295.20425963  .00004342  00000-0  17198-2 0  4242
2 33736 099.6889 207.1986 0051278 250.4470 109.1826 14.28774807282817
